TEVEL2-9                
1 63237U 25052AD  26129.27460199  .00012799  00000+0  43318-3 0  9992
2 63237  97.3983  24.7048 0004097 284.7774  75.3012 15.30727041 64071
TEVEL2-7                
1 63238U 25052AE  26129.24306981  .00012925  00000+0  44099-3 0  9996
2 63238  97.3979  24.6052 0004192 284.6288  75.4488 15.30461864 64061
TEVEL2-8                
1 63239U 25052AF  26129.44703564  .00012648  00000+0  43179-3 0  9997
2 63239  97.3981  24.7867 0004141 284.5757  75.5024 15.30447936 64098
HADES-ICM               
1 63492U 25052BN  26129.45397093  .00637214  16111-3  21082-2 0  9999
2 63492  97.3752  33.2504 0008065 165.2837 194.8673 15.90327311 64670
INNOSAT 16 (RS92S7)     
1 64878U 25155C   26129.49139420  .00004674  00000+0  18985-3 0  9997
2 64878  97.4543  96.7625 0009365 332.0861  27.9873 15.25037068 74776
GEOSCAN 6 (RS92S6)      
1 64879U 25155D   26129.52316378  .00008230  00000+0  29099-3 0  9991
2 64879  97.4538  97.9550 0006279 328.4652  31.6211 15.29420249 74857
GEOSCAN 1 (RS92S1)      
1 64880U 25155E   26129.47444087  .00008600  00000+0  29903-3 0  9991
2 64880  97.4534  98.0226 0006202 329.0095  31.0779 15.29954885 74852
239ALFEROV (RS61S)      
1 64881U 25155F   26129.49614270  .00010406  00000+0  34010-3 0  9999
2 64881  97.4537  98.4830 0005574 329.9585  30.1336 15.31907331 74884
GEOSCAN 2 (RS92S2)      
1 64890U 25155Q   26129.47507323  .00008334  00000+0  28740-3 0  9997
2 64890  97.4534  98.1601 0005147 313.6560  46.4253 15.30236944 74863
GEOSCAN 5 (RS92S5)      
1 64891U 25155R   26129.49321352  .00010150  00000+0  32851-3 0  9993
2 64891  97.4529  98.6028 0004782 341.7794  18.3276 15.32229652 74897
GEOSCAN 4 (RS92S4)      
1 64892U 25155S   26129.48098014  .00010834  00000+0  34906-3 0  9991
2 64892  97.4532  98.6286 0004826 342.6657  17.4419 15.32359806 74899
GEOSCAN 3 (RS92S3)      
1 64893U 25155T   26129.52849007  .00013838  00000+0  42134-3 0  9992
2 64893  97.4522  99.0022 0004478 345.7593  14.3523 15.34103751 74922
INNOSAT 3 (RS92S0)      
1 64894U 25155U   26129.51684481  .00026047  00000+0  62806-3 0  9999
2 64894  97.4480 100.1762 0003203   2.2104 357.9156 15.41206031 75000
KNACKSAT-2              
1 67683U 98067XZ  26129.42084154  .00034901  00000+0  48308-3 0  9990
2 67683  51.6279 128.9489 0012674  55.0153 305.2027 15.56677774 14236
